{
"type": "FeatureCollection",
"name": "aoi_monitoring_4326",
"crs": { "type": "name", "properties": { "name": "urn:ogc:def:crs:OGC:1.3:CRS84" } },
"features": [
{"type":"Feature","properties":{"name":"aoi_monitoring"},"geometry":{"type":"MultiPolygon","coordinates":[[[[115.15337732401747,-2.216254532331363],[115.152169550837741,-2.212034508181593],[115.175479594606571,-2.205282832496818],[115.176687392711884,-2.209502840099871],[115.196218557991855,-2.203845379712987],[115.200400266193427,-2.203843208021707],[115.200405277334127,-2.199555631775981],[115.214284600434198,-2.199571754667781],[115.214887584200767,-2.203835766823699],[115.280803113752086,-2.203799960336051],[115.397225382827258,-2.245907184666121],[115.420221293084779,-2.247519763251688],[115.420221297370134,-2.242322995211429],[115.428560463496737,-2.242315502829843],[115.428560472932503,-2.231866987260378],[115.439671644026944,-2.231866997408829],[115.439671821915979,-2.172549693411009],[115.428560621455858,-2.172549636113212],[115.428560758642064,-2.125672529088459],[115.445227438282828,-2.125672541932506],[115.445227444675368,-2.117339062179608],[115.53755336458903,-2.117338869156443],[115.537548124751339,-2.125646473971317],[115.57252558838961,-2.125676021005526],[115.572525603652792,-2.128819532581562],[115.609856211451856,-2.128819349983726],[115.609856289052544,-2.155424739246218],[115.604217465997891,-2.155424745080379],[115.604217532485094,-2.218077738020511],[115.570882869188893,-2.218077774477144],[115.570880583381523,-2.225859651167065],[115.585288077498191,-2.225789007181711],[115.58524523222539,-2.269981461198264],[115.527685731333762,-2.270021805529679],[115.527654895945616,-2.289464771881271],[115.520880208955461,-2.289447299531659],[115.520884970429591,-2.326328661284998],[115.470788121244325,-2.32632855694546],[115.470788296022093,-2.293028077198715],[115.466416932965785,-2.293095580552523],[115.439228009538198,-2.293084324191712],[115.414085188435052,-2.261607958386138],[115.393553870562528,-2.259860055523734],[115.277526645143041,-2.218398044002781],[115.198107206134708,-2.219318460418035],[115.18738838309622,-2.22242151529537],[115.188445593259544,-2.226116715448764],[115.174783349018767,-2.230071984989863],[115.1735737314891,-2.226426716999275],[114.901756512323672,-2.305461179606747],[114.885066754295138,-2.308242005730259],[114.875530736177353,-2.314154425117755],[114.86578613722746,-2.311449521997747],[114.860192376401784,-2.304373408483408],[114.859414818262991,-2.293406591783451],[114.861392846643795,-2.287465686187808],[114.870194695930337,-2.28157502072891],[114.877805957324085,-2.283445938482079],[114.880396664630638,-2.286983834061811],[114.882147013587328,-2.28784059586664],[114.908731731918863,-2.286745590939288],[115.104158975492354,-2.230501497214433],[115.102076762724622,-2.223224923407862],[115.142966844687649,-2.211382753358941],[115.145051313202188,-2.2186660572632],[115.15337732401747,-2.216254532331363]]]]}},
{"type":"Feature","properties":{"name":null},"geometry":{"type":"MultiPolygon","coordinates":[[[[115.475283611,-2.321806666999976],[115.475283611,-2.282569721999948],[115.486184167000033,-2.282569721999948],[115.486184167000033,-2.264110277999976],[115.466529722000018,-2.264110277999976],[115.466529722000018,-2.25499],[115.459798333000094,-2.25499],[115.459798333000094,-2.251105],[115.447241667000071,-2.251105],[115.447241667000071,-2.246833332999927],[115.433055556000113,-2.246833332999927],[115.433055556000113,-2.236388888999954],[115.444166667000104,-2.236388888999954],[115.444166667000104,-2.168027777999953],[115.433055556000113,-2.168027777999953],[115.433055556000113,-2.130194443999926],[115.449722222000105,-2.130194443999926],[115.449722222000105,-2.12186111099993],[115.533055556000022,-2.12186111099993],[115.533055556000022,-2.138527777999968],[115.524722222000037,-2.138527777999968],[115.524722222000037,-2.15519444399996],[115.516388889000041,-2.15519444399996],[115.516388889000041,-2.171861110999942],[115.508055556000045,-2.171861110999942],[115.508055556000045,-2.18852777799998],[115.524722222000037,-2.18852777799998],[115.524722222000037,-2.180194443999937],[115.541388889000018,-2.180194443999937],[115.541388889000018,-2.171861110999942],[115.549722222000014,-2.171861110999942],[115.549722222000014,-2.163527777999946],[115.558055556000113,-2.163527777999946],[115.558055556000113,-2.146861110999964],[115.566388889000109,-2.146861110999964],[115.566388889000109,-2.130194443999926],[115.568030556000053,-2.130194443999926],[115.568030556000053,-2.133341666999968],[115.605361111000093,-2.133341666999968],[115.605361111000093,-2.150902499999972],[115.599722222000082,-2.150902499999972],[115.599722222000082,-2.21355555599996],[115.566388889000109,-2.21355555599996],[115.566388889000109,-2.246888888999933],[115.516388889000041,-2.246888888999933],[115.516388889000041,-2.321806666999976],[115.475283611,-2.321806666999976]]]]}}
]
}
