{
"type": "FeatureCollection",
"name": "aoi_monitoring_karhutla",
"crs": { "type": "name", "properties": { "name": "urn:ogc:def:crs:OGC:1.3:CRS84" } },
"features": [
{ "type": "Feature", "properties": { "name": "aoi_monitoring" }, "geometry": { "type": "Polygon", "coordinates": [ [ [ 115.568030556000053, -2.130194443999926 ], [ 115.568030556000053, -2.133341666999968 ], [ 115.605361111000093, -2.133341666999968 ], [ 115.605361111000093, -2.150902499999972 ], [ 115.599722222000082, -2.150902499999972 ], [ 115.599722222000082, -2.21355555599996 ], [ 115.566388889000109, -2.21355555599996 ], [ 115.566383889, -2.230403888999945 ], [ 115.5807883330001, -2.230333332999976 ], [ 115.580754167, -2.265462499999956 ], [ 115.523197500000038, -2.265502777999927 ], [ 115.523166667000055, -2.284931110999935 ], [ 115.516384167000069, -2.284913610999979 ], [ 115.516388889000041, -2.321806666999976 ], [ 115.475283611, -2.321806666999976 ], [ 115.475283611, -2.288436137946465 ], [ 115.466383333000067, -2.288573610999947 ], [ 115.44138333300009, -2.288563332999956 ], [ 115.416383056000086, -2.257265555999936 ], [ 115.394511389000058, -2.255403610999963 ], [ 115.278276111000082, -2.213867499999935 ], [ 115.197448056000098, -2.214804443999981 ], [ 115.181826111000078, -2.219326943999931 ], [ 115.182883333000063, -2.22302222199994 ], [ 115.177681944000028, -2.22452805599994 ], [ 115.176470556000027, -2.220877499999972 ], [ 114.900762222000026, -2.301044721999972 ], [ 114.883460833000072, -2.303927499999929 ], [ 114.874839167, -2.309273055999938 ], [ 114.868392500000027, -2.307483610999952 ], [ 114.864575833000117, -2.302655555999934 ], [ 114.863961111000094, -2.293985832999965 ], [ 114.865164722000031, -2.29037083299994 ], [ 114.87104277800006, -2.286436943999945 ], [ 114.875155, -2.287447777999944 ], [ 114.877435000000105, -2.290561388999947 ], [ 114.881199167000091, -2.292403888999957 ], [ 114.909451667000098, -2.291240277999975 ], [ 115.109723056, -2.233602221999945 ], [ 115.1076388890001, -2.22631888899997 ], [ 115.139891389000013, -2.216978332999929 ], [ 115.14197583300006, -2.224261666999951 ], [ 115.158939722000014, -2.219348332999971 ], [ 115.157731944000034, -2.215128332999939 ], [ 115.172404167000082, -2.210878610999941 ], [ 115.173611944000072, -2.215098610999974 ], [ 115.196853889000067, -2.208366388999934 ], [ 115.204889444000059, -2.208362221999948 ], [ 115.204894444000047, -2.204082221999954 ], [ 115.210383611000111, -2.204088610999975 ], [ 115.210987500000101, -2.208359166999969 ], [ 115.280020833000094, -2.208321943999977 ], [ 115.396291111000096, -2.250374443999931 ], [ 115.424716389000082, -2.25236777799995 ], [ 115.424716389000082, -2.246840832999965 ], [ 115.433055556000113, -2.246833332999927 ], [ 115.433055556000113, -2.236388888999954 ], [ 115.444166667000104, -2.236388888999954 ], [ 115.444166667000104, -2.168027777999953 ], [ 115.433055556000113, -2.168027777999953 ], [ 115.433055556000113, -2.130194443999926 ], [ 115.449722222000105, -2.130194443999926 ], [ 115.449722222000105, -2.12186111099993 ], [ 115.533055556000022, -2.12186111099993 ], [ 115.533050278000019, -2.130164721999961 ], [ 115.568030556000053, -2.130194443999926 ] ] ] } }
]
}
